ONEWEB-0342             
1 49208U 21083Y   25230.55096913  .00000033  00000+0  48683-4 0  9995
2 49208  87.9288 334.7464 0001856  95.8538 264.2807 13.20773344196836
ONEWEB-0343             
1 49209U 21083Z   25230.46523001  .00000081  00000+0  17216-3 0  9999
2 49209  87.9144  35.5693 0001211  90.4443 269.6828 13.18685185190141
ONEWEB-0344             
1 49210U 21083AA  25230.46626222  .00000128  00000+0  31455-3 0  9993
2 49210  87.8988  20.4116 0001496 107.4068 252.7224 13.13471233191155
ONEWEB-0345             
1 49211U 21083AB  25230.45781097 -.00000023  00000+0 -97402-4 0  9996
2 49211  87.8991  20.3657 0001476 109.4673 250.6616 13.13470602191163
ONEWEB-0346             
1 49212U 21083AC  25230.47430492  .00000076  00000+0  16026-3 0  9997
2 49212  87.9145  35.5897 0002307 102.7392 257.3998 13.18684695190089
ONEWEB-0348             
1 49213U 21083AD  25230.54149189  .00000039  00000+0  64551-4 0  9992
2 49213  87.9294 334.7599 0002065 117.4014 242.7330 13.20770225196861
ONEWEB-0350             
1 49214U 21083AE  25230.46711585  .00000175  00000+0  44325-3 0  9996
2 49214  87.8995  20.3555 0001619 104.9013 255.2295 13.13470700191190
ONEWEB-0351             
1 49215U 21083AF  25230.53504250  .00000074  00000+0  14971-3 0  9996
2 49215  87.9303 334.7452 0001309  75.3765 284.7514 13.20770300196827
ONEWEB-0352             
1 49216U 21083AG  25230.44763306 -.00000400  00000+0 -11304-2 0  9997
2 49216  87.8981  20.3987 0001485  82.7013 277.4285 13.13469939191287
ONEWEB-0354             
1 49217U 21083AH  25230.56044806  .00000104  00000+0  22303-3 0  9999
2 49217  87.9302 334.7390 0001818 108.4069 251.7262 13.20772184196869
ONEWEB-0355             
1 49218U 21083AJ  25230.47654309  .00000309  00000+0  81243-3 0  9990
2 49218  87.8997  20.3946 0001514  95.4455 264.6847 13.13472000191167
ONEWEB-0357             
1 49219U 21083AK  25230.55729244  .00000045  00000+0  78525-4 0  9998
2 49219  87.9294 334.7421 0001738  98.0958 262.0372 13.20771814196864
ONEWEB-0332             
1 49279U 21090A   25230.57431078  .00000043  00000+0  80511-4 0  9995
2 49279  87.9091 349.9478 0001852  90.7275 269.4067 13.14501371187823
ONEWEB-0347             
1 49280U 21090B   25230.32054772  .00000092  00000+0  19479-3 0  9990
2 49280  87.9300 334.8006 0002146  92.1044 268.0335 13.20772315191064
ONEWEB-0349             
1 49281U 21090C   25230.57939124 -.00000017  00000+0 -73691-4 0  9997
2 49281  87.9293 334.7522 0001791  99.0503 261.0833 13.20772916189889
ONEWEB-0353             
1 49282U 21090D   25230.56639567  .00000185  00000+0  46442-3 0  9992
2 49282  87.9086 349.9362 0001924  91.2972 268.8378 13.14501888187824
ONEWEB-0356             
1 49283U 21090E   25230.57780462  .00000037  00000+0  58423-4 0  9994
2 49283  87.9295 334.7437 0002782 104.7738 255.3704 13.20772879189884
