[{"OBJECT_NAME":"ONEWEB-0342","OBJECT_ID":"2021-083Y","EPOCH":"2025-08-18T13:13:23.732832","MEAN_MOTION":13.20773344,"ECCENTRICITY":0.0001856,"INCLINATION":87.9288,"RA_OF_ASC_NODE":334.7464,"ARG_OF_PERICENTER":95.8538,"MEAN_ANOMALY":264.2807,"EPHEMERIS_TYPE":0,"CLASSIFICATION_TYPE":"U","NORAD_CAT_ID":49208,"ELEMENT_SET_NO":999,"REV_AT_EPOCH":19683,"BSTAR":4.8683e-5,"MEAN_MOTION_DOT":3.3e-7,"MEAN_MOTION_DDOT":0},{"OBJECT_NAME":"ONEWEB-0343","OBJECT_ID":"2021-083Z","EPOCH":"2025-08-18T11:09:55.872864","MEAN_MOTION":13.18685185,"ECCENTRICITY":0.0001211,"INCLINATION":87.9144,"RA_OF_ASC_NODE":35.5693,"ARG_OF_PERICENTER":90.4443,"MEAN_ANOMALY":269.6828,"EPHEMERIS_TYPE":0,"CLASSIFICATION_TYPE":"U","NORAD_CAT_ID":49209,"ELEMENT_SET_NO":999,"REV_AT_EPOCH":19014,"BSTAR":0.00017216,"MEAN_MOTION_DOT":8.1e-7,"MEAN_MOTION_DDOT":0},{"OBJECT_NAME":"ONEWEB-0344","OBJECT_ID":"2021-083AA","EPOCH":"2025-08-18T11:11:25.055808","MEAN_MOTION":13.13471233,"ECCENTRICITY":0.0001496,"INCLINATION":87.8988,"RA_OF_ASC_NODE":20.4116,"ARG_OF_PERICENTER":107.4068,"MEAN_ANOMALY":252.7224,"EPHEMERIS_TYPE":0,"CLASSIFICATION_TYPE":"U","NORAD_CAT_ID":49210,"ELEMENT_SET_NO":999,"REV_AT_EPOCH":19115,"BSTAR":0.00031455,"MEAN_MOTION_DOT":1.28e-6,"MEAN_MOTION_DDOT":0},{"OBJECT_NAME":"ONEWEB-0345","OBJECT_ID":"2021-083AB","EPOCH":"2025-08-18T10:59:14.867808","MEAN_MOTION":13.13470602,"ECCENTRICITY":0.0001476,"INCLINATION":87.8991,"RA_OF_ASC_NODE":20.3657,"ARG_OF_PERICENTER":109.4673,"MEAN_ANOMALY":250.6616,"EPHEMERIS_TYPE":0,"CLASSIFICATION_TYPE":"U","NORAD_CAT_ID":49211,"ELEMENT_SET_NO":999,"REV_AT_EPOCH":19116,"BSTAR":-9.7402e-5,"MEAN_MOTION_DOT":-2.3e-7,"MEAN_MOTION_DDOT":0},{"OBJECT_NAME":"ONEWEB-0346","OBJECT_ID":"2021-083AC","EPOCH":"2025-08-18T11:22:59.945088","MEAN_MOTION":13.18684695,"ECCENTRICITY":0.0002307,"INCLINATION":87.9145,"RA_OF_ASC_NODE":35.5897,"ARG_OF_PERICENTER":102.7392,"MEAN_ANOMALY":257.3998,"EPHEMERIS_TYPE":0,"CLASSIFICATION_TYPE":"U","NORAD_CAT_ID":49212,"ELEMENT_SET_NO":999,"REV_AT_EPOCH":19008,"BSTAR":0.00016026,"MEAN_MOTION_DOT":7.6e-7,"MEAN_MOTION_DDOT":0},{"OBJECT_NAME":"ONEWEB-0348","OBJECT_ID":"2021-083AD","EPOCH":"2025-08-18T12:59:44.899296","MEAN_MOTION":13.20770225,"ECCENTRICITY":0.0002065,"INCLINATION":87.9294,"RA_OF_ASC_NODE":334.7599,"ARG_OF_PERICENTER":117.4014,"MEAN_ANOMALY":242.733,"EPHEMERIS_TYPE":0,"CLASSIFICATION_TYPE":"U","NORAD_CAT_ID":49213,"ELEMENT_SET_NO":999,"REV_AT_EPOCH":19686,"BSTAR":6.4551e-5,"MEAN_MOTION_DOT":3.9e-7,"MEAN_MOTION_DDOT":0},{"OBJECT_NAME":"ONEWEB-0350","OBJECT_ID":"2021-083AE","EPOCH":"2025-08-18T11:12:38.809440","MEAN_MOTION":13.134707,"ECCENTRICITY":0.0001619,"INCLINATION":87.8995,"RA_OF_ASC_NODE":20.3555,"ARG_OF_PERICENTER":104.9013,"MEAN_ANOMALY":255.2295,"EPHEMERIS_TYPE":0,"CLASSIFICATION_TYPE":"U","NORAD_CAT_ID":49214,"ELEMENT_SET_NO":999,"REV_AT_EPOCH":19119,"BSTAR":0.00044325,"MEAN_MOTION_DOT":1.75e-6,"MEAN_MOTION_DDOT":0},{"OBJECT_NAME":"ONEWEB-0351","OBJECT_ID":"2021-083AF","EPOCH":"2025-08-18T12:50:27.672000","MEAN_MOTION":13.207703,"ECCENTRICITY":0.0001309,"INCLINATION":87.9303,"RA_OF_ASC_NODE":334.7452,"ARG_OF_PERICENTER":75.3765,"MEAN_ANOMALY":284.7514,"EPHEMERIS_TYPE":0,"CLASSIFICATION_TYPE":"U","NORAD_CAT_ID":49215,"ELEMENT_SET_NO":999,"REV_AT_EPOCH":19682,"BSTAR":0.00014971,"MEAN_MOTION_DOT":7.4e-7,"MEAN_MOTION_DDOT":0},{"OBJECT_NAME":"ONEWEB-0352","OBJECT_ID":"2021-083AG","EPOCH":"2025-08-18T10:44:35.496384","MEAN_MOTION":13.13469939,"ECCENTRICITY":0.0001485,"INCLINATION":87.8981,"RA_OF_ASC_NODE":20.3987,"ARG_OF_PERICENTER":82.7013,"MEAN_ANOMALY":277.4285,"EPHEMERIS_TYPE":0,"CLASSIFICATION_TYPE":"U","NORAD_CAT_ID":49216,"ELEMENT_SET_NO":999,"REV_AT_EPOCH":19128,"BSTAR":-0.0011304,"MEAN_MOTION_DOT":-4.0e-6,"MEAN_MOTION_DDOT":0},{"OBJECT_NAME":"ONEWEB-0354","OBJECT_ID":"2021-083AH","EPOCH":"2025-08-18T13:27:02.712384","MEAN_MOTION":13.20772184,"ECCENTRICITY":0.0001818,"INCLINATION":87.9302,"RA_OF_ASC_NODE":334.739,"ARG_OF_PERICENTER":108.4069,"MEAN_ANOMALY":251.7262,"EPHEMERIS_TYPE":0,"CLASSIFICATION_TYPE":"U","NORAD_CAT_ID":49217,"ELEMENT_SET_NO":999,"REV_AT_EPOCH":19686,"BSTAR":0.00022303,"MEAN_MOTION_DOT":1.04e-6,"MEAN_MOTION_DDOT":0},{"OBJECT_NAME":"ONEWEB-0355","OBJECT_ID":"2021-083AJ","EPOCH":"2025-08-18T11:26:13.322976","MEAN_MOTION":13.13472,"ECCENTRICITY":0.0001514,"INCLINATION":87.8997,"RA_OF_ASC_NODE":20.3946,"ARG_OF_PERICENTER":95.4455,"MEAN_ANOMALY":264.6847,"EPHEMERIS_TYPE":0,"CLASSIFICATION_TYPE":"U","NORAD_CAT_ID":49218,"ELEMENT_SET_NO":999,"REV_AT_EPOCH":19116,"BSTAR":0.00081243,"MEAN_MOTION_DOT":3.09e-6,"MEAN_MOTION_DDOT":0},{"OBJECT_NAME":"ONEWEB-0357","OBJECT_ID":"2021-083AK","EPOCH":"2025-08-18T13:22:30.066816","MEAN_MOTION":13.20771814,"ECCENTRICITY":0.0001738,"INCLINATION":87.9294,"RA_OF_ASC_NODE":334.7421,"ARG_OF_PERICENTER":98.0958,"MEAN_ANOMALY":262.0372,"EPHEMERIS_TYPE":0,"CLASSIFICATION_TYPE":"U","NORAD_CAT_ID":49219,"ELEMENT_SET_NO":999,"REV_AT_EPOCH":19686,"BSTAR":7.8525e-5,"MEAN_MOTION_DOT":4.5e-7,"MEAN_MOTION_DDOT":0},{"OBJECT_NAME":"ONEWEB-0332","OBJECT_ID":"2021-090A","EPOCH":"2025-08-18T13:47:00.451392","MEAN_MOTION":13.14501371,"ECCENTRICITY":0.0001852,"INCLINATION":87.9091,"RA_OF_ASC_NODE":349.9478,"ARG_OF_PERICENTER":90.7275,"MEAN_ANOMALY":269.4067,"EPHEMERIS_TYPE":0,"CLASSIFICATION_TYPE":"U","NORAD_CAT_ID":49279,"ELEMENT_SET_NO":999,"REV_AT_EPOCH":18782,"BSTAR":8.0511e-5,"MEAN_MOTION_DOT":4.3e-7,"MEAN_MOTION_DDOT":0},{"OBJECT_NAME":"ONEWEB-0347","OBJECT_ID":"2021-090B","EPOCH":"2025-08-18T07:41:35.323008","MEAN_MOTION":13.20772315,"ECCENTRICITY":0.0002146,"INCLINATION":87.93,"RA_OF_ASC_NODE":334.8006,"ARG_OF_PERICENTER":92.1044,"MEAN_ANOMALY":268.0335,"EPHEMERIS_TYPE":0,"CLASSIFICATION_TYPE":"U","NORAD_CAT_ID":49280,"ELEMENT_SET_NO":999,"REV_AT_EPOCH":19106,"BSTAR":0.00019479,"MEAN_MOTION_DOT":9.2e-7,"MEAN_MOTION_DDOT":0},{"OBJECT_NAME":"ONEWEB-0349","OBJECT_ID":"2021-090C","EPOCH":"2025-08-18T13:54:19.403136","MEAN_MOTION":13.20772916,"ECCENTRICITY":0.0001791,"INCLINATION":87.9293,"RA_OF_ASC_NODE":334.7522,"ARG_OF_PERICENTER":99.0503,"MEAN_ANOMALY":261.0833,"EPHEMERIS_TYPE":0,"CLASSIFICATION_TYPE":"U","NORAD_CAT_ID":49281,"ELEMENT_SET_NO":999,"REV_AT_EPOCH":18988,"BSTAR":-7.3691e-5,"MEAN_MOTION_DOT":-1.7e-7,"MEAN_MOTION_DDOT":0},{"OBJECT_NAME":"ONEWEB-0353","OBJECT_ID":"2021-090D","EPOCH":"2025-08-18T13:35:36.585888","MEAN_MOTION":13.14501888,"ECCENTRICITY":0.0001924,"INCLINATION":87.9086,"RA_OF_ASC_NODE":349.9362,"ARG_OF_PERICENTER":91.2972,"MEAN_ANOMALY":268.8378,"EPHEMERIS_TYPE":0,"CLASSIFICATION_TYPE":"U","NORAD_CAT_ID":49282,"ELEMENT_SET_NO":999,"REV_AT_EPOCH":18782,"BSTAR":0.00046442,"MEAN_MOTION_DOT":1.85e-6,"MEAN_MOTION_DDOT":0},{"OBJECT_NAME":"ONEWEB-0356","OBJECT_ID":"2021-090E","EPOCH":"2025-08-18T13:52:02.319168","MEAN_MOTION":13.20772879,"ECCENTRICITY":0.0002782,"INCLINATION":87.9295,"RA_OF_ASC_NODE":334.7437,"ARG_OF_PERICENTER":104.7738,"MEAN_ANOMALY":255.3704,"EPHEMERIS_TYPE":0,"CLASSIFICATION_TYPE":"U","NORAD_CAT_ID":49283,"ELEMENT_SET_NO":999,"REV_AT_EPOCH":18988,"BSTAR":5.8423e-5,"MEAN_MOTION_DOT":3.7e-7,"MEAN_MOTION_DDOT":0}]
